[{"OBJECT_NAME":"STARLINK-32231","OBJECT_ID":"2024-144Q","EPOCH":"2026-03-09T16:48:05.596128","MEAN_MOTION":15.30190952,"ECCENTRICITY":9.629e-5,"INCLINATION":53.1596,"RA_OF_ASC_NODE":216.8753,"ARG_OF_PERICENTER":73.0782,"MEAN_ANOMALY":287.0325,"EPHEMERIS_TYPE":0,"CLASSIFICATION_TYPE":"U","NORAD_CAT_ID":60439,"ELEMENT_SET_NO":999,"REV_AT_EPOCH":8841,"BSTAR":2.4864362e-5,"MEAN_MOTION_DOT":3.77e-6,"MEAN_MOTION_DDOT":0},{"OBJECT_NAME":"TITAN 3C TRANSTAGE DEB","OBJECT_ID":"1965-108AR","EPOCH":"2026-03-05T08:04:59.245248","MEAN_MOTION":2.82942768,"ECCENTRICITY":0.67545958,"INCLINATION":26.8698,"RA_OF_ASC_NODE":148.3869,"ARG_OF_PERICENTER":247.2523,"MEAN_ANOMALY":31.3959,"EPHEMERIS_TYPE":0,"CLASSIFICATION_TYPE":"U","NORAD_CAT_ID":26530,"ELEMENT_SET_NO":999,"REV_AT_EPOCH":27364,"BSTAR":0.0045635439,"MEAN_MOTION_DOT":1.161e-5,"MEAN_MOTION_DDOT":0}]
